{
  "norad_id": 54827,
  "name": "STARLINK-5383",
  "history": [
    {
      "epoch": "2026-03-27T22:05:20.185728Z",
      "apogee_km": 509.4752860311328,
      "perigee_km": 507.86239610315533,
      "latitude_deg": 2.416555898555789e-05,
      "longitude_deg": -123.76203247328785,
      "height_km": 508.38490346496445,
      "semi_major_axis_km": 6886.805841067144,
      "eccentricity": 0.0001171,
      "inclination_deg": 43.0017,
      "raan_deg": 32.9203,
      "arg_perigee_deg": 274.3723,
      "mean_anomaly_deg": 85.6992,
      "mean_motion_rev_day": 15.19063761
    },
    {
      "epoch": "2026-03-27T22:05:20.186592Z",
      "apogee_km": 509.47494169084166,
      "perigee_km": 507.86274044344736,
      "latitude_deg": 2.024557548382734e-05,
      "longitude_deg": -123.76204026341087,
      "height_km": 508.3849297123326,
      "semi_major_axis_km": 6886.805841067144,
      "eccentricity": 0.00011705,
      "inclination_deg": 43.0017,
      "raan_deg": 32.9203,
      "arg_perigee_deg": 274.3723,
      "mean_anomaly_deg": 85.6992,
      "mean_motion_rev_day": 15.19063761
    },
    {
      "epoch": "2026-04-07T19:03:26.656992Z",
      "apogee_km": 486.4333682545848,
      "perigee_km": 484.70096932238357,
      "latitude_deg": 2.1308087573912216e-05,
      "longitude_deg": -150.15779623702852,
      "height_km": 485.348964780437,
      "semi_major_axis_km": 6863.704168788484,
      "eccentricity": 0.0001262,
      "inclination_deg": 43.0011,
      "raan_deg": 331.7691,
      "arg_perigee_deg": 269.6688,
      "mean_anomaly_deg": 90.4019,
      "mean_motion_rev_day": 15.26739447
    },
    {
      "epoch": "2026-04-08T16:00:01.999584Z",
      "apogee_km": 486.5282868360573,
      "perigee_km": 484.58970453903476,
      "latitude_deg": 35.5111076461332,
      "longitude_deg": 20.36100054873198,
      "height_km": 487.87362814254516,
      "semi_major_axis_km": 6863.695995687546,
      "eccentricity": 0.00014122,
      "inclination_deg": 43.0,
      "raan_deg": 326.8478,
      "arg_perigee_deg": 263.4392,
      "mean_anomaly_deg": 218.4796,
      "mean_motion_rev_day": 15.26742174
    },
    {
      "epoch": "2026-04-09T20:00:01.999008Z",
      "apogee_km": 486.5352423605664,
      "perigee_km": 484.54614856442186,
      "latitude_deg": 37.06758784128413,
      "longitude_deg": -124.14651859506772,
      "height_km": 488.27833740983823,
      "semi_major_axis_km": 6863.677695462494,
      "eccentricity": 0.0001449,
      "inclination_deg": 43.0,
      "raan_deg": 320.2695,
      "arg_perigee_deg": 270.078,
      "mean_anomaly_deg": 151.6701,
      "mean_motion_rev_day": 15.2674828
    },
    {
      "epoch": "2026-04-10T06:00:00.999648Z",
      "apogee_km": 486.566639816474,
      "perigee_km": 484.41022597796564,
      "latitude_deg": -9.916945170137945,
      "longitude_deg": -139.82786714434462,
      "height_km": 486.8573220156076,
      "semi_major_axis_km": 6863.625432897219,
      "eccentricity": 0.00015709,
      "inclination_deg": 43.0003,
      "raan_deg": 317.9173,
      "arg_perigee_deg": 272.57,
      "mean_anomaly_deg": 281.9058,
      "mean_motion_rev_day": 15.26765718
    },
    {
      "epoch": "2026-04-11T20:24:20.391264Z",
      "apogee_km": 486.45522053014975,
      "perigee_km": 484.66242318148124,
      "latitude_deg": 2.3105492723929362e-05,
      "longitude_deg": 162.7437516121129,
      "height_km": 485.23105412081145,
      "semi_major_axis_km": 6863.695821855815,
      "eccentricity": 0.0001306,
      "inclination_deg": 43.002,
      "raan_deg": 308.8925,
      "arg_perigee_deg": 276.7076,
      "mean_anomaly_deg": 83.3627,
      "mean_motion_rev_day": 15.26742232
    },
    {
      "epoch": "2026-04-12T23:05:52.588608Z",
      "apogee_km": 486.47035073152256,
      "perigee_km": 484.65682376235964,
      "latitude_deg": -2.790100992370682e-05,
      "longitude_deg": 114.98982803048497,
      "height_km": 485.26744667548365,
      "semi_major_axis_km": 6863.700587246941,
      "eccentricity": 0.00013211,
      "inclination_deg": 43.002,
      "raan_deg": 302.619,
      "arg_perigee_deg": 274.6235,
      "mean_anomaly_deg": 85.4465,
      "mean_motion_rev_day": 15.26740642
    },
    {
      "epoch": "2026-04-14T20:37:54.483168Z",
      "apogee_km": 486.4925062436787,
      "perigee_km": 484.62420836741967,
      "latitude_deg": -2.509410484007841e-05,
      "longitude_deg": 139.41052972477357,
      "height_km": 485.3450834884304,
      "semi_major_axis_km": 6863.695357305549,
      "eccentricity": 0.0001361,
      "inclination_deg": 43.0019,
      "raan_deg": 291.9176,
      "arg_perigee_deg": 269.4013,
      "mean_anomaly_deg": 90.6682,
      "mean_motion_rev_day": 15.26742387
    },
    {
      "epoch": "2026-04-15T18:36:49.391424Z",
      "apogee_km": 486.4559224462473,
      "perigee_km": 484.675477965814,
      "latitude_deg": -6.512224926424005e-06,
      "longitude_deg": 163.6113015708951,
      "height_km": 485.4644890312731,
      "semi_major_axis_km": 6863.70270020603,
      "eccentricity": 0.0001297,
      "inclination_deg": 43.0006,
      "raan_deg": 286.7499,
      "arg_perigee_deg": 262.1199,
      "mean_anomaly_deg": 97.9505,
      "mean_motion_rev_day": 15.26739937
    },
    {
      "epoch": "2026-04-16T11:53:06.595872Z",
      "apogee_km": 486.53290606213886,
      "perigee_km": 484.5822440639067,
      "latitude_deg": -3.3414840631535805e-05,
      "longitude_deg": -100.22692400078513,
      "height_km": 485.32818690010697,
      "semi_major_axis_km": 6863.694575063023,
      "eccentricity": 0.0001421,
      "inclination_deg": 43.0022,
      "raan_deg": 282.6927,
      "arg_perigee_deg": 270.3783,
      "mean_anomaly_deg": 89.6905,
      "mean_motion_rev_day": 15.26742648
    },
    {
      "epoch": "2026-04-16T11:53:06.596736Z",
      "apogee_km": 486.5328344276704,
      "perigee_km": 484.58230970418026,
      "latitude_deg": -3.4201083687398564e-05,
      "longitude_deg": -100.22692844906382,
      "height_km": 485.32818435603707,
      "semi_major_axis_km": 6863.694572065925,
      "eccentricity": 0.00014209,
      "inclination_deg": 43.0022,
      "raan_deg": 282.6927,
      "arg_perigee_deg": 270.3783,
      "mean_anomaly_deg": 89.6905,
      "mean_motion_rev_day": 15.26742649
    },
    {
      "epoch": "2026-04-18T20:28:09.160320Z",
      "apogee_km": 503.3623436193111,
      "perigee_km": 485.0420617727641,
      "latitude_deg": 3.4195303437613585e-05,
      "longitude_deg": 115.4202408227144,
      "height_km": 503.0896472407491,
      "semi_major_axis_km": 6872.339202696037,
      "eccentricity": 0.0013329,
      "inclination_deg": 42.9991,
      "raan_deg": 269.4243,
      "arg_perigee_deg": 174.2805,
      "mean_anomaly_deg": 185.82,
      "mean_motion_rev_day": 15.23862849
    }
  ]
}